{"fetched_at":"2026-03-30T13:17:50Z","count":15418,"tles":[{"name":"STARLINK-30266","line1":"1 57529U 23115J   26087.84835185  .00013934  00000+0  51585-3 0  9991","line2":"2 57529  43.0050 253.2070 0001019 271.0450  89.0285 15.27519301145287","category":"Starlink"}]}